#dP2023  5 27  0  0  0.00000000      96 __u+U ITR00 FIT  IAC
## 2263 518400.00000000   900.00000000 60091 0.0000000000000
+  119   C06C07C08C09C10C11C12C13C14C16C19C20C21C22C23C24C25
+        C26C27C28C29C30C32C33C34C35C36C37C38C39C40C41C42C43
+        C44C45C46E02E03E04E05E07E08E09E10E11E12E13E14E15E18
+        E19E21E24E25E26E27E30E31E33E34E36G01G02G03G04G05G06
+        G07G08G09G10G11G12G13G14G15G16G17G18G19G20G21G22G23
+        G24G25G26G27G28G29G30G31G32J02J03J04R01R02R03R04R05
+        R07R08R09R11R12R13R14R15R16R17R18R19R20R21R22R24R25
++         7  9  9  0  8  8  7  9  7  7  7  6  7  6  6  5  6
++         7  7  6  8  8  7  6  7  8  8  7  8  8  9  6  6  6
++         8  7  8  6  6  6  7  6  6  7  6  6  6  5  6  6  6
++         6  6  5  5  6  6  6  5  6  5  6  6  6  6  5  5  5
++         5  6  6  5  5  7  6  8  6  7  6  6  7  6  6  5  6
++         5  6  5  6  6  5  6  6  5  7  7  8  6  6  6  7  7
++         6  6  5  6  6  6  7  7  6  7  6  6  7  6  6  6  6
%c M  cc GPS ccc cccc cccc cccc cccc ccccc ccccc ccccc ccccc
%c cc cc ccc ccc cccc cccc cccc cccc ccccc ccccc ccccc ccccc
%f  0.0000000  0.000000000  0.00000000000  0.000000000000000
%f  0.0000000  0.000000000  0.00000000000  0.000000000000000
%i    0    0    0    0      0      0      0      0         0
%i    0    0    0    0      0      0      0      0         0
/* INFORMATION & ANALYSIS CENTER (IAC)      ULTRA-RAPID DATA
/* S/V CLOCKS ARE ALIGNED TO GNSS TIME                      
/* G:C1WC2W R:C1PC2P E:C1XC5X C:C2IC6I J:C1CC2S             
/* PCV:IGS20_2247 OL/AL:FES2004  NONE     YN ORB:CoN CLK:CoN
*  2023 05 27 22  0  0.00000000
PC06 -17784.085584  33552.256137  18032.861079   -186.556721
PC07  -4085.867081  37388.018556  19299.767537    -83.589715
PC08  -6183.994640  19613.840021 -36819.895233    475.107062
PC09  -9000.238350  31771.296565  26303.595002    603.708918
PC10   2962.209535  40379.361677  13010.334866    -69.828237
PC11 -20845.678504  12299.593717  13966.954865    642.505551
PC12 -14565.250368  -6003.186814  23063.976320    669.913740
PC13   2039.671174  22704.315226 -35295.113119    283.969273
PC14 -15549.481959   3659.854741 -22857.363413    322.023229
PC16 -20500.245023  33369.536514  15474.712665     63.888918
PC19  10296.158752 -13553.446562  22135.603937   -915.265313
PC20  17970.038289   5177.006126  20740.253623    541.150284
PC21 -15340.623790 -22318.109069  -6644.247161   -918.045617
PC22  -3691.944681 -25447.086314  10801.515900   -468.172695
PC23  -2539.140296  16150.181313  22623.365392   -940.316718
PC24 -27689.900197  -3363.099561  -1180.250520     -4.833092
PC25 -20558.923363  10118.475387  15933.651716    135.270882
PC26 -18945.545387 -12811.214038 -16025.199057   -126.404127
PC27   9035.264115  14082.835345 -22356.219612    146.521914
PC28  -5839.968005  23871.072277 -13225.243525    108.583831
PC29  18093.359991 -20567.747771  -5341.140834    126.147325
PC30  19227.780724  -3875.540626 -19870.445312     -0.625159
PC32  15524.380038  22246.312673   6609.953401   -556.301254
PC33 -10250.442758  13588.323586 -22111.799164   -886.858403
PC34 -19593.614621   5185.629316  19155.762937    180.169751
PC35   5520.914361 -24280.591820  12621.882100    619.211515
PC36  21348.319927  -9212.841694 -15402.477116   -416.747512
PC37  17583.003336  13691.062464  16800.216482   -784.111767
PC38 -15283.711356  19062.600293 -34359.894813     81.216438
PC39 -22651.705520  33997.353125  10041.368747     -3.093546
PC40  -7559.307007  34892.493571  22620.067678    -24.469858
PC41   3334.325061  25280.840202 -11298.804427   -934.362036
PC42 -18211.498291  -6564.905310 -20041.521759   -673.622408
PC43 -18452.650576  20011.175362   6082.502675     23.433375
PC44  -9473.537414 -14012.999586  22182.113107    119.936585
PC45   1954.535329 -16084.570520 -22716.801722   -102.992967
PC46  27784.686841   2367.930421   -297.465455    -57.191799
PE02  -2831.595328 -20436.389356 -21233.076859     40.633352
PE03   2996.776847 -29428.805689   -788.690390    -20.637675
PE04   9717.658898  21849.517738  17462.266695   -131.801244
PE05  14229.514120 -19862.668886  16713.796387    -63.461988
PE07 -16951.733730  -1500.483048 -24207.363145    -48.294081
PE08  -9467.036396 -22055.710640 -17306.513693    -89.789450
PE09  16795.351127   1692.754129  24323.580067    -29.649545
PE10  21559.138444   4550.968553 -19778.100178   -536.884770
PE11  27002.422625  -3286.944157 -11710.439247   2051.980449
PE12  13353.184540  11158.882648 -23957.713648   -556.259594
PE13 -26728.655866   2802.893808  12390.925207    -19.215323
PE14 -11220.555913  26872.464361   6145.310453    237.374545
PE15 -12968.711323 -11288.170334  24091.831393    -25.011842
PE18  16338.889651 -16007.859076 -14525.969494    113.870581
PE19  -4844.036316  29149.850934  -1742.311379  -2434.512079
PE21 -15171.287003   8970.142054  23779.586839   -531.595394
PE24  25486.233474   8934.848831 -12108.977168   -122.524536
PE25  15451.624505  -8689.129446 -23699.689484   -605.784905
PE26 -24249.562773  15408.878021  -7118.133650    116.847106
PE27 -25417.275688  -8297.439160  12708.134004    -60.120106
PE30 -20159.308514 -20766.483091  -6242.060091   -207.794361
PE31  20574.720718  20493.971378   5738.450556   -524.667326
PE33  -8313.203382  18592.605873 -21478.109792   -443.899471
PE34   8135.601895 -18590.431196  21536.627903    -47.699071
PE36  24670.410826 -15063.789817   6399.386306    -62.516671
PG01  -1649.877713  15688.472254 -21639.959891    182.253978
PG02 -18434.973252  16109.615480  -9615.917746   -591.778851
PG03   8595.010433  20189.360073 -15184.780231   -290.137131
PG04    624.700248  25291.318117   7908.356354     52.632091
PG05   7376.673198 -13168.752247  21673.073090   -128.847606
PG06  25287.533910  -4498.224191  -6904.678065    587.297713
PG07  14636.684721  10031.854849  20360.785360    167.516694
PG08  -6400.912353  25186.826456   4274.614134   -124.531267
PG09   8640.407071  19370.126536  15889.067603   -149.262402
PG10 -22661.564572  -9459.392218 -10331.725928    -38.715867
PG11  21999.288997 -12702.674154   7695.756327   -212.833007
PG12  -4364.403911 -20212.921416 -16992.448332   -381.323491
PG13  13251.814841 -20715.006170   9585.744340    525.952999
PG14  22433.142861  12001.411457  -7882.088067     71.261003
PG15   2910.261202 -25996.602667   3231.851858     43.457386
PG16 -11917.470060   9239.863503  21579.705209   -497.165244
PG17  14128.830777   4234.125367 -21660.707939    716.348285
PG18 -17128.766778  -7514.602121  18916.648658   -283.979138
PG19  15974.810381  -4533.564997 -20882.326393    322.669730
PG20  15477.558914  -7796.559276  20109.473964    431.224181
PG21 -10202.967560  17458.529951 -16196.925586    153.546795
PG22 -15790.814838   8754.743154 -18972.566612    488.439869
PG23 -20644.725142 -16808.032180   1110.964842     27.829140
PG24   5107.818720 -18078.123225 -18975.863599   -204.215331
PG25 -15552.359413 -20085.337903  -8522.532555    445.817276
PG26 -20695.040158    487.515096  16708.960731    240.170479
PG27 -12593.834903  18369.410116  13899.117886     28.497122
PG28 -24789.358909   3781.247652  -8770.917898     80.767796
PG29  -4779.934249 -21721.630085  14395.256598   -600.930316
PG30  22781.954043   2397.848077  13775.573476   -514.689064
PG31 -24521.666406  10513.314362   2421.881832   -216.975208
PG32 -15151.052105  -1086.914974 -21601.243245   -486.763481
PJ02 -26264.606553  21872.594034  29792.867982     -0.176883
PJ03 -34735.936607  23710.354491   1945.541383      5.084631
PJ04 -20825.107147  25296.280549 -21420.587576     94.834261
PR01 -11036.089342 -20465.013281 -10466.400582     58.309709
PR02 -11772.614027  -4304.453032 -22177.512895    -22.785095
PR03  -6209.939571  14164.937689 -20217.031610     78.601460
PR04   2628.756091  24325.509515  -7166.158535    188.867683
PR05   9955.004263  21339.164116   9800.496915    113.222536
PR07   5856.170402 -14951.413536  19879.733951     56.779494
PR08  -2775.220292 -24374.863077   7100.536599    -71.001876
PR09  24793.069670   3651.079849  -4961.530201    122.540342
PR11   -809.949544 -11386.956670 -22797.458978    -65.526504
PR12 -19141.243249 -11370.323137 -12435.016375     27.623888
PR13 -24836.203034  -4918.887481   3089.269508    -35.497105
PR14 -15811.165628   5468.597454  19260.492481     24.704299
PR15   2047.038314  11789.963600  22548.643732     89.060221
PR16  19013.151592  11243.882860  12800.117232     14.998080
PR17 -18602.311597  17461.377156    867.329082    633.766027
PR18  -9511.432895  18308.872401 -14955.738911     83.666833
PR19   3018.037506  10939.699297 -22851.672601   -234.165020
PR20  17746.251521  -5410.359369 -17527.106186    -93.614669
PR21  18234.927317 -17807.175087    630.145269    -10.757790
PR22   9225.487089 -17996.781210  15576.684527     80.287149
PR24 -18023.024520   6234.467946  16956.617438    174.050837
PR25  19408.741583 -16506.867495  -1004.640776     61.487326
EOF
